{
  "type": "FeatureCollection",
  "features": [
    {
      "type": "Feature",
      "properties": {
        "norad_id": 37836,
        "name": "EUTELSAT 16A",
        "group": "eutelsat",
        "lat": 0.005769689455034358,
        "lon": 168.82334714253128,
        "alt_km": 35793.30079228723,
        "timestamp": "2025-12-25T03:55:55.978803+00:00",
        "meta_object_name": "EUTELSAT 16A",
        "meta_object_id": "2011-057A",
        "meta_epoch": "2025-12-24T16:35:58.458912",
        "meta_mean_motion": 1.00270993,
        "meta_eccentricity": 0.0005844,
        "meta_inclination": 0.0565,
        "meta_ra_of_asc_node": 348.1184,
        "meta_arg_of_pericenter": 287.2627,
        "meta_mean_anomaly": 83.0595,
        "meta_ephemeris_type": 0,
        "meta_classification_type": "U",
        "meta_norad_cat_id": 37836,
        "meta_element_set_no": 999,
        "meta_rev_at_epoch": 557,
        "meta_bstar": 0,
        "meta_mean_motion_dot": 1.25e-06,
        "meta_mean_motion_ddot": 0,
        "tle_line1": "1 37836U 11057A   25358.69164883  .00000125  00000+0  00000+0 0  9995",
        "tle_line2": "2 37836   0.0565 348.1184 0005844 287.2627  83.0595  1.00270993  5577"
      },
      "geometry": {
        "type": "Point",
        "coordinates": [
          168.82334714253128,
          0.005769689455034358
        ]
      }
    },
    {
      "type": "Feature",
      "properties": {
        "norad_id": 38992,
        "name": "EUTELSAT 21B",
        "group": "eutelsat",
        "lat": -0.0014928769720882996,
        "lon": 174.44526041890185,
        "alt_km": 35789.73288013146,
        "timestamp": "2025-12-25T03:55:55.978815+00:00",
        "meta_object_name": "EUTELSAT 21B",
        "meta_object_id": "2012-062B",
        "meta_epoch": "2025-12-24T16:37:35.804064",
        "meta_mean_motion": 1.00270938,
        "meta_eccentricity": 0.0003246,
        "meta_inclination": 0.066,
        "meta_ra_of_asc_node": 348.9947,
        "meta_arg_of_pericenter": 290.0998,
        "meta_mean_anomaly": 85.3465,
        "meta_ephemeris_type": 0,
        "meta_classification_type": "U",
        "meta_norad_cat_id": 38992,
        "meta_element_set_no": 999,
        "meta_rev_at_epoch": 4807,
        "meta_bstar": 0,
        "meta_mean_motion_dot": 1.51e-06,
        "meta_mean_motion_ddot": 0,
        "tle_line1": "1 38992U 12062B   25358.69277551  .00000151  00000+0  00000+0 0  9992",
        "tle_line2": "2 38992   0.0660 348.9947 0003246 290.0998  85.3465  1.00270938 48071"
      },
      "geometry": {
        "type": "Point",
        "coordinates": [
          174.44526041890185,
          -0.0014928769720882996
        ]
      }
    },
    {
      "type": "Feature",
      "properties": {
        "norad_id": 39020,
        "name": "EUTELSAT 70B",
        "group": "eutelsat",
        "lat": -0.06336164344175806,
        "lon": -136.62737110150437,
        "alt_km": 35770.92624761075,
        "timestamp": "2025-12-25T03:55:55.978827+00:00",
        "meta_object_name": "EUTELSAT 70B",
        "meta_object_id": "2012-069A",
        "meta_epoch": "2025-12-24T19:37:04.206720",
        "meta_mean_motion": 1.00271849,
        "meta_eccentricity": 0.0004205,
        "meta_inclination": 0.062,
        "meta_ra_of_asc_node": 346.7474,
        "meta_arg_of_pericenter": 268.126,
        "meta_mean_anomaly": 203.4741,
        "meta_ephemeris_type": 0,
        "meta_classification_type": "U",
        "meta_norad_cat_id": 39020,
        "meta_element_set_no": 999,
        "meta_rev_at_epoch": 4776,
        "meta_bstar": 0,
        "meta_mean_motion_dot": -2.2e-07,
        "meta_mean_motion_ddot": 0,
        "tle_line1": "1 39020U 12069A   25358.81740980 -.00000022  00000+0  00000+0 0  9995",
        "tle_line2": "2 39020   0.0620 346.7474 0004205 268.1260 203.4741  1.00271849 47762"
      },
      "geometry": {
        "type": "Point",
        "coordinates": [
          -136.62737110150437,
          -0.06336164344175806
        ]
      }
    },
    {
      "type": "Feature",
      "properties": {
        "norad_id": 39122,
        "name": "EUTELSAT 117 WEST A",
        "group": "eutelsat",
        "lat": 0.026773555327497128,
        "lon": 36.136655522776564,
        "alt_km": 35791.99460679533,
        "timestamp": "2025-12-25T03:55:55.978841+00:00",
        "meta_object_name": "EUTELSAT 117 WEST A",
        "meta_object_id": "2013-012A",
        "meta_epoch": "2025-12-24T14:15:19.427040",
        "meta_mean_motion": 1.0027077,
        "meta_eccentricity": 0.000273,
        "meta_inclination": 0.0203,
        "meta_ra_of_asc_node": 318.1474,
        "meta_arg_of_pericenter": 318.7018,
        "meta_mean_anomaly": 273.5546,
        "meta_ephemeris_type": 0,
        "meta_classification_type": "U",
        "meta_norad_cat_id": 39122,
        "meta_element_set_no": 999,
        "meta_rev_at_epoch": 4668,
        "meta_bstar": 0,
        "meta_mean_motion_dot": 8e-08,
        "meta_mean_motion_ddot": 0,
        "tle_line1": "1 39122U 13012A   25358.59397485  .00000008  00000+0  00000+0 0  9993",
        "tle_line2": "2 39122   0.0203 318.1474 0002730 318.7018 273.5546  1.00270770 46682"
      },
      "geometry": {
        "type": "Point",
        "coordinates": [
          36.136655522776564,
          0.026773555327497128
        ]
      }
    },
    {
      "type": "Feature",
      "properties": {
        "norad_id": 39163,
        "name": "EUTELSAT 7B",
        "group": "eutelsat",
        "lat": 0.042380611987418784,
        "lon": 159.88117564024617,
        "alt_km": 35804.516238804856,
        "timestamp": "2025-12-25T03:55:55.978853+00:00",
        "meta_object_name": "EUTELSAT 7B",
        "meta_object_id": "2013-022A",
        "meta_epoch": "2025-12-24T16:33:21.210048",
        "meta_mean_motion": 1.00271589,
        "meta_eccentricity": 0.0004585,
        "meta_inclination": 0.0659,
        "meta_ra_of_asc_node": 8.3067,
        "meta_arg_of_pericenter": 314.1841,
        "meta_mean_anomaly": 26.3009,
        "meta_ephemeris_type": 0,
        "meta_classification_type": "U",
        "meta_norad_cat_id": 39163,
        "meta_element_set_no": 999,
        "meta_rev_at_epoch": 4619,
        "meta_bstar": 0,
        "meta_mean_motion_dot": 6.9e-07,
        "meta_mean_motion_ddot": 0,
        "tle_line1": "1 39163U 13022A   25358.68982882  .00000069  00000+0  00000+0 0  9997",
        "tle_line2": "2 39163   0.0659   8.3067 0004585 314.1841  26.3009  1.00271589 46195"
      },
      "geometry": {
        "type": "Point",
        "coordinates": [
          159.88117564024617,
          0.042380611987418784
        ]
      }
    },
    {
      "type": "Feature",
      "properties": {
        "norad_id": 39612,
        "name": "EXPRESS-AT1",
        "group": "eutelsat",
        "lat": -0.01194685754127477,
        "lon": -151.0893662121828,
        "alt_km": 35786.179572579116,
        "timestamp": "2025-12-25T03:55:55.978865+00:00",
        "meta_object_name": "EXPRESS-AT1",
        "meta_object_id": "2014-010A",
        "meta_epoch": "2025-12-24T20:12:52.687872",
        "meta_mean_motion": 1.00271264,
        "meta_eccentricity": 8.96e-05,
        "meta_inclination": 0.0126,
        "meta_ra_of_asc_node": 292.0137,
        "meta_arg_of_pericenter": 187.4151,
        "meta_mean_anomaly": 333.398,
        "meta_ephemeris_type": 0,
        "meta_classification_type": "U",
        "meta_norad_cat_id": 39612,
        "meta_element_set_no": 999,
        "meta_rev_at_epoch": 4307,
        "meta_bstar": 0,
        "meta_mean_motion_dot": 1e-06,
        "meta_mean_motion_ddot": 0,
        "tle_line1": "1 39612U 14010A   25358.84227648  .00000100  00000+0  00000+0 0  9990",
        "tle_line2": "2 39612   0.0126 292.0137 0000896 187.4151 333.3980  1.00271264 43072"
      },
      "geometry": {
        "type": "Point",
        "coordinates": [
          -151.0893662121828,
          -0.01194685754127477
        ]
      }
    },
    {
      "type": "Feature",
      "properties": {
        "norad_id": 39613,
        "name": "EXPRESS-AT2",
        "group": "eutelsat",
        "lat": -0.01290691929361366,
        "lon": -67.22771358933548,
        "alt_km": 35779.80159448795,
        "timestamp": "2025-12-25T03:55:55.978877+00:00",
        "meta_object_name": "EXPRESS-AT2",
        "meta_object_id": "2014-010B",
        "meta_epoch": "2025-12-24T20:36:42.905952",
        "meta_mean_motion": 1.00272003,
        "meta_eccentricity": 0.0001573,
        "meta_inclination": 0.0174,
        "meta_ra_of_asc_node": 291.2045,
        "meta_arg_of_pericenter": 341.4639,
        "meta_mean_anomaly": 269.999,
        "meta_ephemeris_type": 0,
        "meta_classification_type": "U",
        "meta_norad_cat_id": 39613,
        "meta_element_set_no": 999,
        "meta_rev_at_epoch": 4275,
        "meta_bstar": 0,
        "meta_mean_motion_dot": -2.6e-06,
        "meta_mean_motion_ddot": 0,
        "tle_line1": "1 39613U 14010B   25358.85882993 -.00000260  00000+0  00000+0 0  9990",
        "tle_line2": "2 39613   0.0174 291.2045 0001573 341.4639 269.9990  1.00272003 42752"
      },
      "geometry": {
        "type": "Point",
        "coordinates": [
          -67.22771358933548,
          -0.01290691929361366
        ]
      }
    }
  ]
}